COSMOS 2531 (RODNIK-S *)
1 43752U 18097B   26160.59095775  .00000044  00000+0  24503-3 0  9992
2 43752  82.5188 228.0505 0017900  74.0044 286.3006 12.42912799341361
COSMOS 2532 (RODNIK-S *)
1 43753U 18097C   26160.61921525  .00000067  00000+0  40972-3 0  9990
2 43753  82.5132 226.8224 0019285  75.8261 284.4959 12.42909756341335
MINXSS-2                
1 43758U 18099A   26160.45738337  .00031773  00000+0  64261-3 0  9991
2 43758  97.4537 236.5186 0006158 288.0578  72.0000 15.46382117412939
SIRION PATHFINDER-2     
1 43759U 18099B   26160.38553561  .00003754  00000+0  20742-3 0  9992
2 43759  97.4257 209.6286 0007772 336.7135  23.3744 15.14480438411443
AISTECHSAT 2            
1 43768U 18099L   26160.09925715  .00004387  00000+0  23599-3 0  9990
2 43768  97.4297 208.3105 0003851 347.0992  13.0141 15.15366438411051
FOX-1CLIFF (AO-95)      
1 43770U 18099N   26160.08109071  .00008954  00000+0  34498-3 0  9995
2 43770  97.4389 220.3580 0008826  27.1898 332.9801 15.26538897411985
RANGE-A                 
1 43773U 18099R   26160.37583567  .00003927  00000+0  22378-3 0  9995
2 43773  97.3972 203.1838 0010690  24.1130 336.0600 15.13322854411317
SNUSAT-2                
1 43782U 18099AA  26160.11399540  .00006416  00000+0  28610-3 0  9994
2 43782  97.4065 213.6222 0009140 331.4678  28.6057 15.21715725411809
SNUGLITE                
1 43784U 18099AC  26160.41162674  .00010307  00000+0  39143-3 0  9992
2 43784  97.3876 214.7689 0001684 347.9210  12.1988 15.27007882412130
ITASAT                  
1 43786U 18099AE  26160.11674282  .00005227  00000+0  25280-3 0  9996
2 43786  97.4032 211.7901 0012983  28.2656 331.9281 15.18954369411686
EAGLET-I                
1 43790U 18099AJ  26160.38062145  .00003091  00000+0  17910-3 0  9997
2 43790  97.4235 210.2561 0011475  21.4303 338.7406 15.12880219411153
ESEO                    
1 43792U 18099AL  26160.33085981  .00001679  00000+0  12484-3 0  9998
2 43792  97.3965 198.0553 0012134   6.6996 353.4391 15.04216082410624
THEA                    
1 43796U 18099AQ  26160.18330916  .00015396  00000+0  45891-3 0  9995
2 43796  97.4443 229.7992 0005971 319.1795  40.9000 15.34744351411465
ASTROCAST 0.1           
1 43798U 18099AS  26160.44623675  .00032810  00000+0  60575-3 0  9999
2 43798  97.4377 238.7050 0004558 232.9563 127.1271 15.49023600413231
JY1SAT (JO-97)          
1 43803U 18099AX  26160.13509799  .00014955  00000+0  46531-3 0  9998
2 43803  97.4132 222.9432 0004209 303.3283  56.7556 15.33397143412399
SUOMI-100               
1 43804U 18099AY  26160.08758942  .00009244  00000+0  33836-3 0  9998
2 43804  97.4188 220.5119 0008531 313.2979  46.7548 15.28231571412184
CENTAURI-1              
1 43809U 18099BD  26160.08919976  .00004970  00000+0  25954-3 0  9992
2 43809  97.4224 211.9829 0013942   3.0927 357.0389 15.16284228411275
GLOBAL-2                
1 43812U 18099BG  26160.38096704  .00003307  00000+0  21511-3 0  9992
2 43812  97.3562 197.2191 0006201 166.3831 193.7567 15.08626049410733
SEAHAWK-1               
1 43820U 18099BQ  26160.11930643  .00007303  00000+0  31629-3 0  9992
2 43820  97.3962 212.7283 0007440 348.2898  11.8164 15.22675876411306
SAUDISAT 5A             
1 43831U 18102A   26160.63383150  .00004930  00000+0  18310-3 0  9996
2 43831  97.3072 222.3606 0010466 152.6715 207.5078 15.27969193414521
SAUDISAT 5B             
1 43833U 18102C   26160.65395462  .00004750  00000+0  17508-3 0  9997
2 43833  97.3179 225.4363 0011104 155.1528 205.0249 15.28230451414640
ISAT                    
1 43879U 18111D   26160.55157001  .00084865  00000+0  89616-3 0  9995
2 43879  97.5883  95.1924 0001756  51.2917 308.8498 15.63934099409975
UWE-4                   
1 43880U 18111E   26159.73543038  .00034399  00000+0  71406-3 0  9999
2 43880  97.5854  87.7396 0007084  15.0599 345.0859 15.45597673409471
D-STAR ONE (SPARROW)    
1 43881U 18111F   26160.37167875  .00135823  00000+0  10182-2 0  9990
2 43881  97.6115 100.4818 0004709 100.0969 260.0825 15.72205314410145
JILIN-1 09              
1 43943U 19005B   26160.54599433  .00004450  00000+0  20708-3 0  9997
2 43943  97.4732 255.5745 0003769 109.7496 250.4146 15.20447724407987
JILIN-1 10              
1 43946U 19005E   26160.51855865  .00005077  00000+0  20241-3 0  9999
2 43946  97.4775 259.3236 0006777 312.2201  47.8461 15.25640486408143
EGYPTSAT-A (MISRSAT-A)  
1 44047U 19008A   26160.59948704  .00000391  00000+0  69751-4 0  9992
2 44047  98.0099 225.4654 0001199  89.8962 270.2382 14.72298007392127
EMISAT                  
1 44078U 19018A   26160.58982036  .00000292  00000+0  98810-4 0  9990
2 44078  98.4646 219.4318 0017349 238.9396 121.0091 14.43684203378966
