OBJECT_NAME,OBJECT_ID,EPOCH,MEAN_MOTION,ECCENTRICITY,INCLINATION,RA_OF_ASC_NODE,ARG_OF_PERICENTER,MEAN_ANOMALY,EPHEMERIS_TYPE,CLASSIFICATION_TYPE,NORAD_CAT_ID,ELEMENT_SET_NO,REV_AT_EPOCH,BSTAR,MEAN_MOTION_DOT,MEAN_MOTION_DDOT
COSMOS 2531 (RODNIK-S 17),2018-097B,2026-06-09T14:10:58.749600,12.42912799,.00179003,82.5188,228.0505,74.0044,286.3006,0,U,43752,999,34136,.2450271E-3,.44E-6,0
COSMOS 2532 (RODNIK-S 18),2018-097C,2026-06-09T14:51:40.197600,12.42909756,.00192858,82.5132,226.8224,75.8261,284.4959,0,U,43753,999,34133,.40971612E-3,.67E-6,0
MINXSS-2,2018-099A,2026-06-09T10:58:37.923168,15.46382117,.00061582,97.4537,236.5186,288.0578,72.0000,0,U,43758,999,41293,.64261006E-3,.31773E-3,0
SIRION PATHFINDER-2,2018-099B,2026-06-09T09:15:10.276704,15.14480438,.00077721,97.4257,209.6286,336.7135,23.3744,0,U,43759,999,41144,.20741841E-3,.3754E-4,0
AISTECHSAT 2,2018-099L,2026-06-09T02:22:55.817760,15.15366438,.00038515,97.4297,208.3105,347.0992,13.0141,0,U,43768,999,41105,.23598705E-3,.4387E-4,0
FOX-1CLIFF (AO-95),2018-099N,2026-06-09T01:56:46.237344,15.26538897,.00088264,97.4389,220.3580,27.1898,332.9801,0,U,43770,999,41198,.3449818E-3,.8954E-4,0
RANGE-A,2018-099R,2026-06-09T09:01:12.201888,15.13322854,.00106907,97.3972,203.1838,24.1130,336.0600,0,U,43773,999,41131,.22377736E-3,.3927E-4,0
SNUSAT-2,2018-099AA,2026-06-09T02:44:09.202560,15.21715725,.00091404,97.4065,213.6222,331.4678,28.6057,0,U,43782,999,41180,.28609767E-3,.6416E-4,0
SNUGLITE,2018-099AC,2026-06-09T09:52:44.550336,15.27007882,.00016843,97.3876,214.7689,347.9210,12.1988,0,U,43784,999,41213,.39143452E-3,.10307E-3,0
ITASAT,2018-099AE,2026-06-09T02:48:06.579648,15.18954369,.00129837,97.4032,211.7901,28.2656,331.9281,0,U,43786,999,41168,.25280358E-3,.5227E-4,0
EAGLET-I,2018-099AJ,2026-06-09T09:08:05.693280,15.12880219,.00114754,97.4235,210.2561,21.4303,338.7406,0,U,43790,999,41115,.17909735E-3,.3091E-4,0
ESEO,2018-099AL,2026-06-09T07:56:26.287584,15.04216082,.00121349,97.3965,198.0553,6.6996,353.4391,0,U,43792,999,41062,.12484329E-3,.1679E-4,0
THEA,2018-099AQ,2026-06-09T04:23:57.911424,15.34744351,.00059719,97.4443,229.7992,319.1795,40.9000,0,U,43796,999,41146,.4589131E-3,.15396E-3,0
ASTROCAST 0.1,2018-099AS,2026-06-09T10:42:34.855200,15.49023600,.00045584,97.4377,238.7050,232.9563,127.1271,0,U,43798,999,41323,.60574572E-3,.3281E-3,0
JY1SAT (JO-97),2018-099AX,2026-06-09T03:14:32.466336,15.33397143,.00042091,97.4132,222.9432,303.3283,56.7556,0,U,43803,999,41239,.46530705E-3,.14955E-3,0
SUOMI-100,2018-099AY,2026-06-09T02:06:07.725888,15.28231571,.00085312,97.4188,220.5119,313.2979,46.7548,0,U,43804,999,41218,.33835793E-3,.9244E-4,0
CENTAURI-1,2018-099BD,2026-06-09T02:08:26.859264,15.16284228,.00139429,97.4224,211.9829,3.0927,357.0389,0,U,43809,999,41127,.25953636E-3,.497E-4,0
GLOBAL-2,2018-099BG,2026-06-09T09:08:35.552256,15.08626049,.00062011,97.3562,197.2191,166.3831,193.7567,0,U,43812,999,41073,.21510855E-3,.3307E-4,0
SEAHAWK-1,2018-099BQ,2026-06-09T02:51:48.075552,15.22675876,.00074405,97.3962,212.7283,348.2898,11.8164,0,U,43820,999,41130,.31628641E-3,.7303E-4,0
SAUDISAT 5A,2018-102A,2026-06-09T15:12:43.041600,15.27969193,.00104664,97.3072,222.3606,152.6715,207.5078,0,U,43831,999,41452,.18310357E-3,.493E-4,0
SAUDISAT 5B,2018-102C,2026-06-09T15:41:41.679168,15.28230451,.00111045,97.3179,225.4363,155.1528,205.0249,0,U,43833,999,41464,.17507946E-3,.475E-4,0
ISAT,2018-111D,2026-06-09T13:14:15.648864,15.63934099,.00017563,97.5883,95.1924,51.2917,308.8498,0,U,43879,999,40997,.89616312E-3,.84865E-3,0
UWE-4,2018-111E,2026-06-08T17:39:01.184832,15.45597673,.00070848,97.5854,87.7396,15.0599,345.0859,0,U,43880,999,40947,.71405657E-3,.34399E-3,0
D-STAR ONE (SPARROW),2018-111F,2026-06-09T08:55:13.044000,15.72205314,.00047092,97.6115,100.4818,100.0969,260.0825,0,U,43881,999,41014,.10182217E-2,.135823E-2,0
JILIN-1 09,2019-005B,2026-06-09T13:06:13.910112,15.20447724,.00037697,97.4732,255.5745,109.7496,250.4146,0,U,43943,999,40798,.20708315E-3,.445E-4,0
JILIN-1 10,2019-005E,2026-06-09T12:26:43.467360,15.25640486,.00067778,97.4775,259.3236,312.2201,47.8461,0,U,43946,999,40814,.20241184E-3,.5077E-4,0
EGYPTSAT-A (MISRSAT-A),2019-008A,2026-06-09T14:23:15.680256,14.72298007,.00011993,98.0099,225.4654,89.8962,270.2382,0,U,44047,999,39212,.69751408E-4,.391E-5,0
EMISAT,2019-018A,2026-06-09T14:09:20.479104,14.43684203,.00173492,98.4646,219.4318,238.9396,121.0091,0,U,44078,999,37896,.9880951E-4,.292E-5,0
